X,Y,OBJECTID,EntityName,EntityType,AlternateName,Address,City,State,Phone,AltPhone,Fax,WebSite,Email,CommunityName,ZIPCode,AltFax,AsOfDate
1394833.01618437,827141.248298324,1092,Organized Village of Saxman,Federally Recognized Tribe,Saxman IRA,Route 2,Ketchikan,AK,+1 (907) 247-2502,,+1 (907) 247-2504,,"lwallace2@ccthita.org; saxmanira@kpunet.net; iragovt@kpunet.net",Saxman,99901,,2023/03/01 09:00:00+00
90120.4148750471,1691441.85128758,1093,Native Village of Tanana,Federally Recognized Tribe,,PO Box 130,Tanana,AK,+1 (907) 366-7160,,+1 (907) 366-7195,,"info@tananatribe.org; executivedirector@tananatribe.org",Tanana,99777,,2023/03/01 09:00:00+00
-215168.893662071,1328137.49475481,1094,Village of Crooked Creek,Federally Recognized Tribe,,PO Box 69,Crooked Creek,AK,+1 (907) 432-2200,,+1 (907) 432-2201,,crookedcreektraditionalcouncil@gmail.com,Crooked Creek,99575,,2023/03/01 09:00:00+00
218081.827119088,1695656.67465434,1095,Native Village of Minto,Federally Recognized Tribe,,PO Box 58026,Minto,AK,+1 (907) 798-7112,,+1 (907) 798-7627,,"mintovillagecouncil@hotmail.com; keith.charlie@tananachiefs.org",Minto,99758-0026,,2023/03/01 09:00:00+00
-10520.5699198308,771139.336261794,1096,Native Village of Akhiok,Federally Recognized Tribe,,PO Box 5030,Akhiok,AK,+1 (907) 836-2312,,+1 (907) 836-2345,,jeanetta.rastopsoff@kodiakhealthcare.org,Akhiok,99615,,2023/03/01 09:00:00+00
-529658.010371663,593925.062444231,1097,Agdaagux Tribe of King Cove,Federally Recognized Tribe,King Cove,PO Box 249,King Cove,AK,+1 (907) 497-2648,,+1 (907) 497-2803,,"ettakuzakin@yahoo.com; atc@arctic.net",King Cove,99612,,2023/03/01 09:00:00+00
-493205.06019154,1478597.59141131,1098,Village of Bill Moore's Slough,Federally Recognized Tribe,,PO Box 20288,Kotlik,AK,+1 (907) 899-4232,,+1 (907) 899-4461,,bms99620@gmail.com,Bill Moore's Slough,99620,,2023/03/01 09:00:00+00
-126723.908380746,1886093.92757466,1099,Native Village of Kobuk,Federally Recognized Tribe,,PO Box 51039,Kobuk,AK,+1 (907) 948-2203,,+1 (907) 948-2123,,tribeadmin@laugvik.org,Kobuk,99751,,2023/03/01 09:00:00+00
-394886.386127338,1816964.99104262,1100,Native Village of Deering,Federally Recognized Tribe,,PO Box 36089,Deering,AK,+1 (907) 363-2138,,+1 (907) 363-2195,,tribeadmin@ipnatchiaq.org,Deering,99736,,2023/03/01 09:00:00+00
-821103.117607516,506511.585367918,1101,Qawalangin Tribe of Unalaska,Federally Recognized Tribe,,PO Box 334,Unalaska,AK,+1 (907) 581-2920,,+1 (907) 581-3644,http://www.qawalangintribe.com,"robin.qawalangin@gmail.com; chris@qawalangin.com",Unalaska,99685,,2023/03/01 09:00:00+00
-402443.958757316,1225580.47820934,1102,Organized Village of Kwethluk,Federally Recognized Tribe,,PO Box 130,Kwethluk,AK,+1 (907) 757-6714,,+1 (907) 757-6328,,"kwethlukira@gmail.com; assistantovk@gmail.com",Kwethluk,99621-0130,,2023/03/01 09:00:00+00
-680552.401707761,1832482.91683757,1103,Native Village of Diomede,Federally Recognized Tribe,Inalik,PO Box 7079,Diomede,AK,+1 (907) 686-2175,,+1 (907) 686-2203,,tc.dio@kawerak.org,Diomede,99762,,2023/03/01 09:00:00+00
-411468.071384623,612220.112308554,1104,Qagan Tayagungin Tribe of Sand Point Village,Federally Recognized Tribe,QTT,PO Box 447,Sand Point,AK,+1 (907) 383-5616,,+1 (907) 383-5814,http://www.qttribe.org,qttadmin@arctic.net,Sand Point,99661,,2023/03/01 09:00:00+00
1041545.37663449,1173105.06431145,1105,Chilkoot Indian Association,Federally Recognized Tribe,Haines,PO Box 490,Haines,AK,+1 (907) 766-2323,,+1 (907) 766-2365,http://chilkoot-nsn.gov,hbrouillette@chilkoot-nsn.gov,Haines,99827-0490,,2023/03/01 09:00:00+00
1115220.67484787,940259.297605514,1106,Sitka Tribe of Alaska,Federally Recognized Tribe,,456 Katlian Street,Sitka,AK,+1 (907) 747-3207,,+1 (907) 747-4915,http://www.sitkatribe.org,"lawrence.widmark@sitkatribe-nsn.gov; lisa.gassman@sitkatribe-nsn.gov",Sitka,99835-7505,,2023/03/01 09:00:00+00
-384326.501339864,1333013.77056371,1107,Iqurmuit Traditional Council,Federally Recognized Tribe,,PO Box 09,Russian Mission,AK,+1 (907) 584-5511,,+1 (907) 584-5593,,iqurmiut71@yahoo.com,Russian Mission,99657,,2023/03/01 09:00:00+00
115433.095413551,2251263.47545772,1108,Native Village of Nuiqsut,Federally Recognized Tribe,Nooiksut,PO Box 89169,Nuiqsut,AK,+1 (907) 480-3010,,+1 (907) 480-3009,,native.village@astacalaska.net,Nuiqsut,99789,,2023/03/01 09:00:00+00
505209.434057254,1318323.36338686,1109,Native Village of Chitina,Federally Recognized Tribe,,PO Box 31,Chitina,AK,+1 (907) 823-2215,,+1 (907) 823-2285,,"chitina_village@outlook.com; ctivc@outlook.com",Chitina,99566,,2023/03/01 09:00:00+00
94892.9302364204,2021732.26164827,1110,Village of Anaktuvuk Pass,Federally Recognized Tribe,Naqsragmiut Tribe,PO Box 21170,Anaktuvuk Pass,AK,+1 (907) 661-2575,,+1 (907) 661-2576,,"julie.morry@inupiatgov.com; karlene.ticket@inupiatgov.com",Anaktuvuk Pass,99721,,2023/03/01 09:00:00+00
-456126.242470982,1241722.19411346,1111,Native Village of Nunapitchuk,Federally Recognized Tribe,,PO Box 130,Nunapitchuk,AK,+1 (907) 527-5705,,+1 (907) 527-5711,,tribaladmin@yupik.org,Nunapitchuk,99641,,2023/03/01 09:00:00+00
-805516.283468307,1625678.8536362,1112,Native Village of Savoonga,Federally Recognized Tribe,,PO Box 120,Savoonga,AK,+1 (907) 984-6414,,+1 (907) 984-6027,,tc.sva@kawerak.org,Savoonga,99769,,2023/03/01 09:00:00+00
514788.504749838,1479498.72464914,1113,Mentasta Traditional Council,Federally Recognized Tribe,,PO Box 6019,Mentasta,AK,+1 (907) 291-2319,,+1 (907) 291-2305,,"mentastatraditionalcouncil@yahoo.com; 907mlv99780ta@gmail.com",Mentasta Lake,99780-6019,,2023/03/01 09:00:00+00
1129707.37880928,1087835.34840785,1114,Douglas Indian Association,Federally Recognized Tribe,,811 W. 12th Street,Juneau,AK,+1 (907) 364-2916,,+1 (907) 364-2917,,"emorrison-dia@gci.net; alaiti@diataku.com",Douglas,99801,,2023/03/01 09:00:00+00
-338183.868432756,1681583.88085712,1115,Native Village of Koyuk,Federally Recognized Tribe,,PO Box 53030,Koyuk,AK,+1 (907) 963-3651,,+1 (907) 963-2353,http://www.kawerak.org/communities/koyuk.html,tc.kka@kawerak.org,Koyuk,99753,,2023/03/01 09:00:00+00
-197747.117891587,917108.463237619,1116,Egegik Village,Federally Recognized Tribe,,PO Box 29,Egegik,AK,+1 (907) 233-2211,,+1 (907) 233-2312,,"egegiktribaloffice@yahoo.com; egegikvillage2013@yahoo.com",Egegik,99579,,2023/03/01 09:00:00+00
-377014.91516036,1906544.53404862,1117,Native Village of Kotzebue,Federally Recognized Tribe,,PO Box 296,Kotzebue,AK,+1 (907) 442-3467,,+1 (907) 442-2162,http://www.kotzebueira.org,"nicole.stoops@qira.org; martinshroyer573@gmail.com; siikauraq@qira.org",Kotzebue,99752-0296,,2023/03/01 09:00:00+00
-637704.863437468,1341749.52325604,1118,Native Village of Hooper Bay,Federally Recognized Tribe,,PO Box 69,Hooper Bay,AK,+1 (907) 758-4915,,+1 (907) 758-4066,,"nvhpb14@yahoo.com; j.olson@nvhpb.org",Hooper Bay,99604,,2023/03/01 09:00:00+00
1128713.59693205,1089945.06693488,1119,Central Council of the Tlingit & Haida Indian Tribes of Alaska,Federally Recognized Tribe,Central Council,9097 Glacier Hwy,Juneau,AK,+1 (907) 586-1432,,+1 (888) 335-8981,http://www.ccthita.org,"rpeterson@ccthita-nsn.gov; cjackson@ccthita-nsn.gov; deptfob@ccthita-nsn.gov; sblue@ccthita-nsn.gov",Juneau,99801,,2023/03/01 09:00:00+00
-621045.111079703,1357895.68851394,1120,Native Village of Paimiut,Federally Recognized Tribe,,PO Box 230,Hooper Bay,AK,+1 (907) 561-9878,,+1 (907) 563-5398,,"hnapoleon@paimiut.org; anganaran@yahoo.com; paimiut@nvptc.org; colleent@nvptc.org",Paimiut,99604,,2023/03/01 09:00:00+00
-173607.166245054,972356.878521707,1121,South Naknek Village,Federally Recognized Tribe,Qinuyang,PO Box 70029,South Naknek,AK,+1 (907) 246-7942,,+1 (907) 246-7641,,aelbie.snvc@gmail.com,South Naknek,99670,,2023/03/01 09:00:00+00
-861998.954714851,1650244.0948119,1122,Native Village of Gambell,Federally Recognized Tribe,Sivuqaq,PO Box 90,Gambell,AK,+1 (907) 985-5346,,+1 (907) 985-5014,,"nvg_gm@yahoo.com; tc.gam@kawerak.org",Gambell,99742,,2023/03/01 09:00:00+00
453137.328724413,1797102.5674427,1123,Circle Native Community,Federally Recognized Tribe,,PO Box 89,Circle,AK,+1 (907) 773-2822,,+1 (907) 773-2823,,jessica.fields@tananachiefs.org,Circle,99733,,2023/03/01 09:00:00+00
-213422.135377389,845809.209454219,1124,Native Village of Pilot Point,Federally Recognized Tribe,,PO Box 109,Pilot Point,AK,+1 (907) 797-2330,,+1 (907) 797-2332,,pilotpointadmin@bbna.com,Pilot Point,99766,,2023/03/01 09:00:00+00
-281948.838499008,1904401.9970097,1125,Native Village of Kiana,Federally Recognized Tribe,,PO Box 69,Kiana,AK,+1 (907) 475-2109,,+1 (907) 475-2180,,"tribedirector@katyaaq.org; president@katyaaq.org",Kiana,99749,,2023/03/01 09:00:00+00
-261538.012610842,990939.377471944,1126,Village of Clarks Point,Federally Recognized Tribe,,PO Box 90,Clarks Point,AK,+1 (907) 236-1427,,+1 (907) 236-1428,,"clp_villagecouncil@yahoo.com; tribaladministrator@clpvc.org",Clarks Point,99569-0090,,2023/03/01 09:00:00+00
-342254.333484691,668891.626523145,1127,Ivanof Bay Tribe,Federally Recognized Tribe,Ivanof Bay Village,6407 Brayton Drive Suite 201,Anchorage,AK,+1 (907) 522-2263,,+1 (907) 522-2363,http://www.ivanofbaytribe.org,nicole@ivanofbaytribe.org,Ivanof Bay,99507,,2023/03/01 09:00:00+00
72479.8654524013,890170.146505548,1128,Native Village of Afognak,Federally Recognized Tribe,,323 Carolyn Street,Kodiak,AK,+1 (907) 486-6357,,+1 (907) 486-6529,http://www.afognak.org,tribe@afognak.org,Afognak,99615,,2023/03/01 09:00:00+00
-604791.300692952,1371265.34480727,1129,Native Village of Scammon Bay,Federally Recognized Tribe,,PO Box 126,Scammon Bay,AK,+1 (907) 558-5425,,+1 (907) 558-5134,,admin@marayarmiut.com,Scammon Bay,99662,,2023/03/01 09:00:00+00
1144735.21044678,1001399.40699281,1130,Angoon Community Association,Federally Recognized Tribe,,PO Box 328,Angoon,AK,+1 (907) 788-3411,,+1 (907) 788-3412,,"rjack@ccthita.org; cjames.agntribe@gmail.com; sramey.agntribe@gmail.com",Angoon,99820,,2023/03/01 09:00:00+00
-272641.915673634,708171.073460952,1131,Chignik Bay Tribal Council,Federally Recognized Tribe,Native Village of Chignik,PO Box 50,Chignik,AK,+1 (907) 749-2445,,+1 (907) 749-2423,,cbaytc@aol.com,Chignik,99564,,2023/03/01 09:00:00+00
234988.043371995,1630972.325968,1132,Nenana Native Association,Federally Recognized Tribe,,PO Box 369,Nenana,AK,+1 (907) 832-5461,,+1 (907) 832-1077,,"ta.nnc@outlook.com; doncharlie_85@hotmail.com; rcadiente99760@gmail.com",Nenana,99760,,2023/03/01 09:00:00+00
-42352.1803480683,1049908.97923495,1133,Kokhanok Village,Federally Recognized Tribe,,PO Box 1007,Kokhanok,AK,+1 (907) 282-2202,,+1 (907) 282-2264,,"kokhanok_vc@yahoo.com; kokhanok.vca@gmail.com",Kokhanok,99606,,2023/03/01 09:00:00+00
1390949.46071987,828555.191281473,1134,Ketchikan Indian Corporation,Federally Recognized Tribe,,2960 Tongass Avenue,Ketchikan,AK,+1 (907) 228-4900,,+1 (907) 719-1915,http://www.kictribe.org,"cdewitt@kictribe.org; cmann@kictribe.org; aburns@kictribe.org",Ketchikan,99901,,2023/03/01 09:00:00+00
-154173.067110536,967957.922090339,1135,King Salmon Tribe,Federally Recognized Tribe,,PO Box 68,King Salmon,AK,+1 (907) 246-3553,,+1 (907) 246-3449,,"rangasansr@yahoo.com; ralph.angasan.3@kstribe.com; kingsalmon@kstribe.com",King Salmon,99613-0068,,2023/03/01 09:00:00+00
331180.006059222,1914361.67558878,1136,Village of Venetie,Federally Recognized Tribe,Native Village of Venetie Tribal Government,PO Box 81119,Venetie,AK,+1 (907) 849-8212,,+1 (907) 849-8216,,"venetievillagecouncil@yahoo.com; cwtackett7@outlook.com",Venetie,99781,,2023/03/01 09:00:00+00
-197057.061222871,1044795.06400626,1137,Native Village of Ekwok,Federally Recognized Tribe,,PO Box 70,Ekwok,AK,+1 (907) 464-3336,,+1 (907) 464-3378,http://www.bbna.com,"King2rick@yahoo.com; bbaltar@bbna.com; jbaltar@bbna.com",Ekwok,99580,,2023/03/01 09:00:00+00
-509342.605634276,1133719.75625607,1138,Native Village of Kwigillingok,Federally Recognized Tribe,,PO Box 90,Kwigillingok,AK,+1 (907) 588-8114,,+1 (907) 588-8429,,"kwktribal@yahoo.com; djohn@kwigtribe.org; tribaladmin@kwigtribe.org",Kwigillingok,99622,,2023/03/01 09:00:00+00
-578885.345951845,1762943.31139869,1139,Native Village of Brevig Mission,Federally Recognized Tribe,,101 Mission Street,Brevig Mission,AK,+1 (907) 642-4301,,+1 (907) 642-2099,,"wseetot@kawerak.org; tc.kts@kawerak.org",Brevig Mission,99785,,2023/03/01 09:00:00+00
122878.36850152,1041787.24714114,1140,Native Village of Port Graham,Federally Recognized Tribe,,PO Box 5510,Port Graham,AK,+1 (907) 284-2227,,+1 (907) 284-2222,,"pnormanvc@hotmail.com; vivian@portgraham.org; fran@portgraham.org",Port Graham,99603-5510,,2023/03/01 09:00:00+00
1042113.96096509,1199031.05835886,1141,Skagway Village,Federally Recognized Tribe,Skagway Traditional Council,PO Box 1157,Skagway,AK,+1 (907) 983-4068,,+1 (907) 983-3068,tribe's website,"jbricker@wpyr.com; administrator@skagwaytraditional.org; info@skagwaytraditional.org",Skagway,99840-1157,,2023/03/01 09:00:00+00
-463441.464290839,1359992.80737394,1142,Pilot Station Traditional Village,Federally Recognized Tribe,,PO Box 5119,Pilot Station,AK,+1 (907) 549-3373,,+1 (907) 549-3301,,mpkelly_963@hotmail.com,Pilot Station,99650,,2023/03/01 09:00:00+00
331738.160820134,1134592.24073559,1143,Native Village of Chenega,Federally Recognized Tribe,Chanega,PO Box 8079,Chenega Bay,AK,+1 (907) 569-5688,,+1 (907) 569-6939,,"brian.pillars@chenegafuture.com; megan.green@chenegaira.com",Chenega,99574-8079,,2023/03/01 09:00:00+00
223408.043452646,1791220.22569493,1144,Native Village of Stevens,Federally Recognized Tribe,,PO Box 74016,Stevens Village,AK,+1 (907) 478-7228,,+1 (907) 478-7229,,"haroldsimon907@gmail.com; momike419@gmail.com; svs.ira.council@gmail.com; margaret.matthew@tananachiefs.org",Stevens Village,99774,,2023/03/01 09:00:00+00
-5570.33705066545,1088614.44941918,1145,Pedro Bay Village,Federally Recognized Tribe,,PO Box 47020,Pedro Bay,AK,+1 (907) 850-2225,,+1 (907) 850-2221,http://www.pedrobay.com,"villagecouncil@pedrobay.com; frontdesk@pedrobay.com; j.baalke@pedrobay.com",Pedro Bay,99647,,2023/03/01 09:00:00+00
-504641.714678906,1383006.58358768,1146,Asa'carsarmiut Tribe,Federally Recognized Tribe,,PO Box 32249,Mountain Village,AK,+1 (907) 591-2814,,+1 (907) 591-2811,,"atcoperations@gci.net; atcyouth@gci.net; atccouncil@asacarsarmiut.org; atcadmin@asacarsarmiut.org",Mountain Village,99632,,2023/03/01 09:00:00+00
1338592.77344132,833795.508697213,1147,Organized Village of Kasaan,Federally Recognized Tribe,,PO Box 26 - Kasaan,Kasaan,AK,+1 (907) 542-2230,,+1 (907) 542-3006,http://www.kasaan.org,"paula@kasaan.org; administrator@kasaan.org; ovk@kasaan.org",Kasaan,99950-0340,,2023/03/01 09:00:00+00
-498236.544903423,1661292.52273176,1148,Village of Solomon,Federally Recognized Tribe,,PO Box 2053,Nome,AK,+1 (907) 443-4985,,+1 (907) 443-5189,,tc.sol@kawerak.org,Solomon,99762,,2023/03/01 09:00:00+00
-187052.448134996,1055625.21469234,1149,New Stuyahok Village,Federally Recognized Tribe,New Stuyahok Traditional Council,PO Box 49,New Stuyahok,AK,+1 (907) 693-3173,,+1 (907) 693-3179,,newstutribe@hotmail.com,New Stuyahok,99636,,2023/03/01 09:00:00+00
-26066.0341954539,839943.217720194,1150,Native Village of Karluk,Federally Recognized Tribe,,PO Box 22,Karluk,AK,+1 (907) 241-2218,,+1 (907) 241-2208,,"aandrew211@outlook.com; allisonr@alaskaqpa.com; karlukiracouncil@aol.com",Karluk,99608,,2023/03/01 09:00:00+00
153610.679907259,1235054.74586276,1151,Native Village of Tyonek,Federally Recognized Tribe,,PO Box 82009,Tyonek,AK,+1 (907) 583-2111,,+1 (907) 583-2442,,"nvtcouncilsecretary@gmail.com; NVTPresident@gmail.com",Tyonek,99682-0009,,2023/03/01 09:00:00+00
-554525.089338192,1440760.04264743,1152,Native Village of Nunam Iqua,Federally Recognized Tribe,Native Village of Sheldon's Point,PO Box 27,Nunam Iqua,AK,+1 (907) 498-4184,,+1 (907) 498-4185,,nunamtribe@gmail.com,Nunam Iqua,99666-0027,,2023/03/01 09:00:00+00
117871.786670187,1041948.3974587,1153,Native Village of Nanwalek,Federally Recognized Tribe,English Bay,PO Box 8028,Nanwalek,AK,+1 (907) 281-2274,,+1 (907) 281-2252,,"nanwalek@yahoo.com; gwen@chugachmiut.org",Nanwalek,99603,,2023/03/01 09:00:00+00
-167086.034700021,1306714.056421,1154,Village of Sleetmute,Federally Recognized Tribe,,PO Box 109,Sleetmute,AK,+1 (907) 449-4263,,+1 (907) 449-4265,,"slqtraditionalcouncil@gmail.com; j-bonin@hotmail.com",Sleetmute,99668,,2023/03/01 09:00:00+00
528913.242653236,1532292.10191689,1155,Native Village of Tanacross,Federally Recognized Tribe,,PO Box 76009,Tanacross,AK,+1 (907) 883-4008,,+1 (907) 883-5815,,"herbert.demit@tananachiefs.org; issac_monica@yahoo.com; jerry_isaac@hotmail.com",Tanacross,99776,,2023/03/01 09:00:00+00
-609994.321572468,1219519.85430933,1156,Umkumiut Native Village,Federally Recognized Tribe,,PO Box 90062,Nightmute,AK,+1 (907) 647-6145,,+1 (907) 647-6146,,umkumiut@yahoo.com,Umkumiut,99690,,2023/03/01 09:00:00+00
-307075.684978314,1451345.66566966,1157,Organized Village of Grayling,Federally Recognized Tribe,Holikachuk,PO Box 49,Grayling,AK,+1 (907) 453-5116,,+1 (907) 453-5146,,"nicholi_sa6919@yahoo.com; rachel.freireich@tananachiefs.org",Grayling,99590,,2023/03/01 09:00:00+00
574649.399645128,1512987.82606618,1158,Native Village of Tetlin,Federally Recognized Tribe,,PO Box 797,Tok,AK,+1 (907) 883-2021,,+1 (907) 883-1267,,tetlinvillagecouncil@gmail.com,Tetlin,99780,,2023/03/01 09:00:00+00
-110127.639880373,1751240.87506519,1159,Huslia Village,Federally Recognized Tribe,,PO Box 70,Huslia,AK,+1 (907) 829-2294,,+1 (907) 829-2214,,husliatribe@gmail.com,Huslia,99746,,2023/03/01 09:00:00+00
-107963.937147732,1038397.51307668,1160,Igiugig Village,Federally Recognized Tribe,,PO Box 4008,Igiugig,AK,+1 (907) 533-3211,,+1 (907) 533-3217,,"igiugig.vc@gmail.com; alexannasalmon@gmail.com",Igiugig,99613,,2023/03/01 09:00:00+00
-184087.954435105,1086250.13841146,1161,New Koliganek Village Council,Federally Recognized Tribe,,PO Box 5057,Koliganek,AK,+1 (907) 596-3434,,+1 (907) 596-3462,,newkgkvc@hotmail.com,Koliganek,99576,,2023/03/01 09:00:00+00
-50160.1750683196,1081425.31841533,1162,Newhalen Village,Federally Recognized Tribe,,PO Box 207,Newhalen,AK,+1 (907) 571-1410,,+1 (907) 571-1537,,"newhalentribal@yahoo.com; joannewassillie@newhalentribal.com",Newhalen,99606,,2023/03/01 09:00:00+00
-611355.594582764,1336743.04208092,1163,Chevak Native Village,Federally Recognized Tribe,,PO Box 140,Chevak,AK,+1 (907) 858-7421,,+1 (907) 858-7812,,chevaktc@gmail.com,Chevak,99563-0140,,2023/03/01 09:00:00+00
-228053.382392943,1604048.25793828,1164,Village of Kaltag,Federally Recognized Tribe,,PO Box 129,Kaltag,AK,+1 (907) 534-2224,,+1 (907) 534-2299,,"esmailka32@hotmail.com; ktc129@hotmail.com",Kaltag,99748,,2023/03/01 09:00:00+00
-545131.292891217,1662011.84942765,1165,Nome Eskimo Community,Federally Recognized Tribe,,PO Box 1090,Nome,AK,+1 (907) 443-2246,,+1 (907) 443-3539,http://www.necalaska.org,"nomeeskimo@gci.net; cathy.lyon@necalaska.org",Nome,99762,,2023/03/01 09:00:00+00
-101342.589397113,2367854.81608432,1166,Native Village of Barrow Inupiat Traditional Government,Federally Recognized Tribe,,PO Box 1130,Barrow,AK,+1 (907) 852-4411,,+1 (907) 852-8844,http://www.nvbarrow.net,"tolemaun@nvbarrow.net; email@nvbarrow.net; maryjane.lang@nvbarrow.net",Utqiagvik,99723,,2023/03/01 09:00:00+00
-70888.0208406742,1642768.99740994,1167,Native Village of Ruby,Federally Recognized Tribe,,PO Box 68210,Ruby,AK,+1 (907) 468-4479,,+1 (907) 468-4474,,rubynativecouncil@hotmail.com,Ruby,99768,,2023/03/01 09:00:00+00
-415497.986743595,1312212.10929474,1168,Village of Ohogamiut,Federally Recognized Tribe,,PO Box 49,Marshall,AK,+1 (907) 679-6517,,+1 (907) 679-6516,http://www.ohogtc.org,"mrsdisaac96@gmail.com; sophiet@ohogtc.org; admin@ohogtc.net",Ohogamiut,99585,,2023/03/01 09:00:00+00
60175.5883428383,1845337.79990434,1169,Allakaket Village,Federally Recognized Tribe,,PO Box 50,Allakaket,AK,+1 (907) 968-2237,,+1 (907) 968-2233,,"allakaketepa@yahoo.com; elisa.bergman@tananachiefs.org",Allakaket,99720,,2023/03/01 09:00:00+00
-262418.110486748,988920.947579179,1170,Native Village of Ekuk,Federally Recognized Tribe,,PO Box 530,Dillingham,AK,+1 (907) 842-3842,,+1 (907) 842-3843,,"evc@ekukvc.net; diane@ekukvc.net; ekukvc@ekukvc.net",Ekuk,99576,,2023/03/01 09:00:00+00
295944.830471104,1837251.65818556,1171,Beaver Village,Federally Recognized Tribe,,PO Box 24029,Beaver,AK,+1 (907) 628-6126,,+1 (907) 628-6815,,"rpitka@beavercouncil.org; wpitka@beavercouncil.org",Beaver,99724,,2023/03/01 09:00:00+00
-277208.32474227,1299382.0395778,1172,Native Village of Chuathbaluk,Federally Recognized Tribe,Russian Mission or Kuskokwim,#1 Teen Center Trail,Chuathbaluk,AK,+1 (907) 467-4313,,+1 (907) 467-4113,http://chuathbaluktc.wix.com/chuathbaluk,chuathtradcouncil@gmail.com,Chuathbaluk,99557-8999,,2023/03/01 09:00:00+00
-50742.1148290514,1085205.33191174,1173,Village of Iliamna,Federally Recognized Tribe,,PO Box 286,Iliamna,AK,+1 (907) 571-1246,,+1 (907) 571-3539,,"ivc@iliamnavc.org; dollyann.trefon@iliamnavc.org",Iliamna,99606,,2023/03/01 09:00:00+00
-352628.310789471,2220589.21235648,1174,Native Village of Point Lay,Federally Recognized Tribe,,PO Box 59031,Point Lay,AK,+1 (907) 833-5052,,+1 (907) 833-8868,,"nvpl.ira@gmail.com; ptlay.ira@gmail.com",Point Lay,99759,,2023/03/01 09:00:00+00
-585243.431821837,1213354.21877197,1175,Native Village of Nightmute,Federally Recognized Tribe,,PO Box 90021,Nightmute,AK,+1 (907) 647-6215,,+1 (907) 647-6112,,negtemiut_tribe@live.com,Nightmute,99690,,2023/03/01 09:00:00+00
-526203.79103316,2093518.89801835,1176,Native Village of Point Hope,Federally Recognized Tribe,,PO Box 109,Pt. Hope,AK,+1 (907) 368-2330,,+1 (907) 368-2332,,"peggy.frankson@tikigaq.org; executive.director@tikigaq.org",Point Hope,99766,,2023/03/01 09:00:00+00
-442314.158471233,1163545.02028242,1177,Native Village of Eek,Federally Recognized Tribe,,PO Box 89,Eek,AK,+1 (907) 536-5128,,+1 (907) 536-5711,,"etcgov@yahoo.com; nve89t@yahoo.com",Eek,99578-0089,,2023/03/01 09:00:00+00
454359.728294303,1889974.92602281,1178,Chalkyitsik Village,Federally Recognized Tribe,,PO Box 57,Chalkyitsik,AK,+1 (907) 848-8117,,+1 (907) 848-8986,,"tamhenry40@hotmail.com; tru_native_69@yahoo.com; kyle.joseph.ak@gmail.com",Chalkyitsik,99788,,2023/03/01 09:00:00+00
399599.272922145,2270028.5977156,1179,Kaktovik Village,Federally Recognized Tribe,Barter Island,PO Box 52,Kaktovik,AK,+1 (907) 640-2042,,+1 (907) 640-2044,,nvkaktovik@gmail.com,Kaktovik,99747,,2023/03/01 09:00:00+00
132689.640155183,1055857.66562634,1180,Seldovia Village Tribe,Federally Recognized Tribe,,Drawer L,Seldovia,AK,+1 (907) 234-7898,,+1 (907) 234-7865,http://www.svt.org,"svt@svt.org; ccollier@svt.org",Seldovia Village,99663,,2023/03/01 09:00:00+00
-398871.836539254,1525392.69678106,1181,Native Village of Saint Michael,Federally Recognized Tribe,,PO Box 59050,St. Michael,AK,+1 (907) 923-2304,,+1 (907) 923-2406,,"tc.smk@kawerak.org; smkira21@gmail.com",St. Michael,99659,,2023/03/01 09:00:00+00
-384158.97598142,1983045.89714552,1182,Native Village of Noatak,Federally Recognized Tribe,,PO Box 89,Noatak,AK,+1 (907) 485-2173,,+1 (907) 485-2137,,tribeadmin@nautaaq.org,Noatak,99761,,2023/03/01 09:00:00+00
-47716.8110046451,1109006.5306363,1183,Nondalton Village,Federally Recognized Tribe,,PO Box 49,Nondalton,AK,+1 (907) 294-2257,,+1 (907) 294-2271,,nondaltontribe@yahoo.com,Nondalton,99640,,2023/03/01 09:00:00+00
43178.2686273217,801116.138837186,1184,Alutiiq Tribe of Old Harbor,Federally Recognized Tribe,Native Village of Old Harbor or Village of Old Harbor or Old Harbor Tribal Council,PO Box 62,Old Harbor,AK,+1 (907) 286-2215,,+1 (907) 286-2350,,"bobbi.barnowsky@ohtcmail.com; darik.larionoff@ohtcmail.org; alewis@alutiiqtribe.org",Old Harbor,99643,,2023/03/01 09:00:00+00
-476821.428120612,1374720.21598731,1185,Algaaciq Native Village,Federally Recognized Tribe,St. Mary's,PO Box 48,St. Mary's,AK,+1 (907) 438-2932,,+1 (907) 438-2227,,algaaciq@yahoo.com,St. Mary's,99658,,2023/03/01 09:00:00+00
448519.435046842,1399145.2187377,1186,Native Village of Gakona,Federally Recognized Tribe,,PO Box 102,Gakona,AK,+1 (907) 822-5777,,+1 (907) 822-5997,http://www.nvgakona.com,gakonaadmin@cvinternet.net,Gakona,99586,,2023/03/01 09:00:00+00
-310205.1561704,1891560.22052034,1187,Noorvik Native Community,Federally Recognized Tribe,,PO Box 209,Noorvik,AK,+1 (907) 636-2144,,+1 (907) 636-2284,,"tribemanager@noorvik.org; transportation@noorvik.org; tribemanager@nuurvik.org",Noorvik,99763,,2023/03/01 09:00:00+00
-168359.015507785,1908076.91542096,1188,Native Village of Ambler,Federally Recognized Tribe,,PO Box 47,Ambler,AK,+1 (907) 445-2238,,+1 (907) 445-2257,,tribemanager@ivisaappaat.org,Ambler,99786,,2023/03/01 09:00:00+00
-138066.033296481,1884423.63733658,1189,Native Village of Shungnak,Federally Recognized Tribe,,PO Box 73064,Shungnak,AK,+1 (907) 437-2163,,+1 (907) 437-2183,,"tribeclerk@issingnak.org; tribeadmin@issingnak.org",Shungnak,99773,,2023/03/01 09:00:00+00
-447901.542750638,689960.63172887,1190,Native Village of Nelson Lagoon,Federally Recognized Tribe,,PO Box 913,Nelson Lagoon,AK,+1 (907) 989-2204,,+1 (907) 989-2234,,"pgunde1361@gci.com; jgunde1125@aol.com; nelsonlagoonentities@gmail.com",Nelson Lagoon,99571,,2023/03/01 09:00:00+00
-563048.986264424,530495.95346518,1191,Pauloff Harbor Village,Federally Recognized Tribe,,PO Box 97,Sand Point,AK,+1 (907) 383-6075,,+1 (907) 383-6094,http://www.pauloffharbortribe.org,pauloffadmn@outlook.com,Pauloff Harbor,99661,,2023/03/01 09:00:00+00
129044.446321741,1119364.99602203,1192,Ninilchik Village,Federally Recognized Tribe,,PO Box 39070,Ninilchik,AK,+1 (907) 567-3313,,+1 (907) 567-3308,http://www.ninilchiktribe-nsn.gov,"ntc@ninilchiktribe-nsn.gov; ivan@ninilchiktribe-nsn.gov",Ninilchik,99639,,2023/03/01 09:00:00+00
-373149.436221529,1254734.12369385,1193,Tuluksak Native Community,Federally Recognized Tribe,,PO Box 95,Tuluksak,AK,+1 (907) 695-6420,,+1 (907) 695-6932,,tuluksak99679@gmail.com,Tuluksak,99679-0095,,2023/03/01 09:00:00+00
-401781.971546647,1237051.74614264,1194,Akiachak Native Community,Federally Recognized Tribe,,PO Box 51070,Akiachak,AK,+1 (907) 825-4626,,+1 (907) 825-4029,,"anc_me@yahoo.com; anc_tribalcouncils@yahoo.com",Akiachak,99551-0070,,2023/03/01 09:00:00+00
-459493.036753183,1241856.72899398,1195,Kasigluk Traditional Elders Council,Federally Recognized Tribe,Kasigluk Traditional Council,PO Box 19,Kasigluk,AK,+1 (907) 477-6405,,+1 (907) 477-6212,,kasigluk.admin@gmail.com,Kasigluk,99609-0019,,2023/03/01 09:00:00+00
-203122.023166344,839451.616636022,1196,Ugashik Village,Federally Recognized Tribe,,2525 Blueberry Road Suite 205,Anchorage,AK,+1 (907) 338-7611,,+1 (907) 338-7659,http://www.ugashikvillage.com,"manager@ugashikvillage.com; president@ugashikvillage.com; taa@ugashikvillage.com; info@ugashikvillage.com",Ugashik,99503,,2023/03/01 09:00:00+00
1296029.36558087,812250.576492947,1197,Craig Tribal Association,Federally Recognized Tribe,,PO Box 828,Craig,AK,+1 (907) 826-3996,,+1 (907) 826-3997,http://www.craigtribe.org,tribal.admin@craigtribe.org,Craig,99921,,2023/03/01 09:00:00+00
354054.042572951,2041227.39298027,1198,Arctic Village,Federally Recognized Tribe,Native Village of Venetie Tribal Government,PO Box 22069,Arctic Village,AK,+1 (907) 587-5523,,+1 (907) 587-5128,,"av_council@hotmail.com; margoriegemmillava@gmail.com; avc.robertsam@gmail.com",Arctic Village,99722,,2023/03/01 09:00:00+00
-604708.940679213,1222203.06208921,1199,Nunakauyarmiut Tribe,Federally Recognized Tribe,,PO Box 37048,Toksook Bay,AK,+1 (907) 427-7114,,+1 (907) 427-7714,,"nunakauyak@ak.net; robert@ntcak.com",Toksook Bay,99637-7048,,2023/03/01 09:00:00+00
-410657.157081019,1531965.93288483,1200,Stebbins Community Association,Federally Recognized Tribe,,PO Box 71002,Stebbins,AK,+1 (907) 934-2393,,+1 (907) 934-3560,,"scaira.tapraq@yahoo.com; tc.wbb@kawerak.org",Stebbins,99671,,2023/03/01 09:00:00+00
-611414.696738958,1229766.58859209,1201,Native Village of Tununak,Federally Recognized Tribe,,PO Box 77,Tununak,AK,+1 (907) 652-6527,,+1 (907) 652-6011,,"tribe2work@yahoo.com; nativevillagetununak@gmail.com",Tununak,99681,,2023/03/01 09:00:00+00
-566472.040459798,1173895.45756847,1202,Village of Chefornak,Federally Recognized Tribe,,PO Box 110,Chefornak,AK,+1 (907) 867-8500,,+1 (907) 867-8711,,"cyf_tcoffice@yahoo.com; presidentchefornaktc@gmail.com",Chefornak,99561-0110,,2023/03/01 09:00:00+00
-456575.14463536,1692668.33983796,1203,Native Village of Council,Federally Recognized Tribe,,PO Box 2050,Nome,AK,+1 (907) 443-7649,,+1 (907) 443-5965,http://www.kawerak.org,tc.cou@kawerak.org,Council,99762,,2023/03/01 09:00:00+00
-516807.165479186,1730626.80726666,1204,Native Village of Mary's Igloo,Federally Recognized Tribe,,PO Box 546,Teller,AK,+1 (907) 642-3731,,+1 (907) 642-2189,,tcmi@kawerak.orgtc.mi@kawerak.org,Mary's Igloo,99778,,2023/03/01 09:00:00+00
389072.307254684,1871099.7990719,1205,Native Village of Fort Yukon,Federally Recognized Tribe,,PO Box 126,Fort Yukon,AK,+1 (907) 662-2581,,+1 (907) 662-2222,http://www.fortyukon.org,"michael.hardy@fortyukon.org; melanie.herbert@fortyukon.org",Fort Yukon,99740,,2023/03/01 09:00:00+00
-666098.967390566,1216835.77501392,1206,Native Village of Mekoryuk,Federally Recognized Tribe,,PO Box 66,Mekoryuk,AK,+1 (907) 827-8828,,+1 (907) 827-8133,http://www.mekoryuktc.org,"nativevillage.mekoryuk@yahoo.com; steven.w@mekoryuktc.org",Mekoryuk,99630,,2023/03/01 09:00:00+00
-447226.987289272,2009807.22968578,1207,Native Village of Kivalina,Federally Recognized Tribe,,PO Box 50051,Kivalina,AK,+1 (907) 645-2153,,+1 (907) 645-2193,,tribeadmin@kivaliniq.org,Kivalina,99750,,2023/03/01 09:00:00+00
-431809.410641146,1038370.52998029,1208,Native Village of Goodnews Bay,Federally Recognized Tribe,,PO Box 03,Goodnews Bay,AK,+1 (907) 967-8929,,+1 (907) 967-8330,,"goodnews907@hotmail.com; tribaladministrator@nvgb.net",Goodnews Bay,99589-0138,,2023/03/01 09:00:00+00
88384.1436342165,881147.263944216,1209,Native Village of Ouzinkie,Federally Recognized Tribe,,PO Box 130,Ouzinkie,AK,+1 (907) 680-2259,,+1 (907) 680-2214,http://www.ouzinkie.org,"nvo.clerk@gmail.com; ouztribe@gmail.com",Ouzinkie,99644,,2023/03/01 09:00:00+00
-513363.957257602,1481049.59792884,1210,Chuloonawick Native Village,Federally Recognized Tribe,,PO Box 245,Emmonak,AK,+1 (907) 949-1345,,+1 (907) 949-1346,,chuloonawick@gci.net,Chuloonawick,99581-0245,,2023/03/01 09:00:00+00
-511524.460849439,594822.571008507,1211,Native Village of Belkofski,Federally Recognized Tribe,,PO Box 57,King Cove,AK,+1 (907) 497-3122,,+1 (907) 497-3123,,kcbtc@arctic.net,Belkofski,99612,,2023/03/01 09:00:00+00
796586.766796008,1148740.88735429,1212,Yakutat Tlingit Tribe,Federally Recognized Tribe,,PO Box 418,Yakutat,AK,+1 (907) 784-3238,,+1 (907) 784-3595,,"vdemmert@ytttribe.org; vldemmert@gmail.com; cpetersen@ytttribe.org",Yakutat,99689,,2023/03/01 09:00:00+00
-446971.034695754,1236062.1002801,1213,Village of Atmautluak,Federally Recognized Tribe,,PO Box 6568,Atmautluak,AK,+1 (907) 553-5610,,+1 (907) 553-5612/5150,,atmautluaktc@gmail.com,Atmautluak,99559,,2023/03/01 09:00:00+00
-390088.939894051,1235043.39515902,1214,Akiak Native Community,Federally Recognized Tribe,,PO Box 52127,Akiak,AK,+1 (907) 765-7112,,+1 (907) 765-7512,,akiarmiu@yahoo.com,Akiak,99552,,2023/03/01 09:00:00+00
-267002.37065953,1861743.46862271,1215,Native Village of Selawik,Federally Recognized Tribe,,59 North Tundra Street,Selawik,AK,+1 (907) 484-2165,,+1 (907) 484-2226,,tribeadmin@akuligaq.org,Selawik,99770,,2023/03/01 09:00:00+00
-80397.3307664457,1443158.2115088,1216,McGrath Native Village,Federally Recognized Tribe,,PO Box 134,McGrath,AK,+1 (907) 524-3024,,+1 (907) 524-3899,,"gina.mckindy@tananchiefs.org; tribaladmin@mcgrathnvc.com; adale@mcgrathnvc.com",McGrath,99627,,2023/03/01 09:00:00+00
-659022.677792937,1736713.2713765,1217,King Island Native Community,Federally Recognized Tribe,,PO Box 682,Nome,AK,+1 (907) 443-2209,,+1 (907) 443-8049,,"bpayenna@hotmail.com; jknowlton@kawerak.org",King Island,99762,,2023/03/01 09:00:00+00
-475946.828570827,1181762.56330012,1218,Native Village of Tuntutuliak,Federally Recognized Tribe,,PO Box 8086,Tuntutuliak,AK,+1 (907) 256-2128,,+1 (907) 256-2080,,"dwhite@avcp.org; qasiarqalria23@gmail.com; wfrank.ttc@gmail.com",Tuntutuliak,99680,,2023/03/01 09:00:00+00
-121501.563291323,842308.143623146,1219,Native Village of Kanatak,Federally Recognized Tribe,,PO Box 876822,Wasilla,AK,+1 (907) 357-5991,,+1 (907) 357-5992,http://www.kanatak.com,kanatak@mtaonline.net,Kanatak,99687,,2023/03/01 09:00:00+00
-324001.743176981,1797365.25911133,1220,Native Village of Buckland,Federally Recognized Tribe,,PO Box 67,Buckland,AK,+1 (907) 494-2171,,+1 (907) 494-2192,,"tribeclerk@nunachiak.org; tribeadmin@nunachiak.org",Buckland,99727,,2023/03/01 09:00:00+00
109596.61769265,1887280.78080124,1221,Evansville Village,Federally Recognized Tribe,Bettles Field,PO Box 26087,Bettles Field,AK,+1 (907) 692-5005,,+1 (907) 692-5006,,"evansvillealaska@gmail.com; frankiefigsak@gmail.com",Evansville,99726,,2023/03/01 09:00:00+00
1108.94767894523,837018.962758935,1222,Native Village of Larsen Bay,Federally Recognized Tribe,,PO Box 50,Larsen Bay,AK,+1 (907) 847-2207,,+1 (907) 847-2307,,larsenbaytribe@gmail.com,Larsen Bay,99624,,2023/03/01 09:00:00+00
612761.518039983,1702592.35937992,1223,Native Village of Eagle,Federally Recognized Tribe,,PO Box 19,Eagle,AK,+1 (907) 547-2281,,+1 (907) 547-2318,,"eaglevillagecouncil@yahoo.com; karma.ulvi@tananachiefs.org; eaglevillagecouncil@outlook.com",Eagle Village,99738,,2023/03/01 09:00:00+00
-493157.205972101,1140801.35265554,1224,Native Village of Kongiganak,Federally Recognized Tribe,,PO Box 5069,Kongiganak,AK,+1 (907) 557-5226,,+1 (907) 557-5224,,kong.tribe@gmail.com,Kongiganak,99559-5069,,2023/03/01 09:00:00+00
-541049.82099132,1860130.47257105,1225,Native Village of Shishmaref,Federally Recognized Tribe,,PO Box 72110,Shishmaref,AK,+1 (907) 649-3821,,+1 (907) 649-2104,,tc.shh@kawerak.org,Shishmaref,99772,,2023/03/01 09:00:00+00
-280194.960905991,709704.934092457,1226,Native Village of Chignik Lagoon,Federally Recognized Tribe,,PO Box 09,Chignik Lagoon,AK,+1 (907) 840-2281,,+1 (907) 840-2217,,"clvoffice@gmail.com; clpu.office@gmail.com; clvcoffice@gmail.com; clvcgrants@gmail.com",Chignik Lagoon,99565,,2023/03/01 09:00:00+00
-294537.833390566,704373.112042544,1227,Chignik Lake Village,Federally Recognized Tribe,,PO Box 33,Chignik Lake,AK,+1 (907) 845-2212,,+1 (907) 845-2217,,chigniklakevillagecouncil@gmail.com,Chignik Lake,99548,,2023/03/01 09:00:00+00
-320961.247478179,668095.752654292,1228,Native Village of Perryville,Federally Recognized Tribe,,PO Box 89,Perryville,AK,+1 (907) 853-2203,,+1 (907) 853-2230,,"nvproads@hotmail.com; nativevillageofperryville@outlook.com",Perryville,99648,,2023/03/01 09:00:00+00
-499904.206109331,1473465.86998113,1229,Native Village of Hamilton,Federally Recognized Tribe,,PO Box 20248,Kotlik,AK,+1 (907) 899-4252,,+1 (907) 899-4202,,"toriapurple@yahoo.com; hamilton_tribalcouncil@yahoo.com; dhunt@avcp.org",Hamilton,99620,,2023/03/01 09:00:00+00
-250637.01568748,1293060.03126829,1230,Native Village of Napaimute,Federally Recognized Tribe,,PO Box 1301,Bethel,AK,+1 (907) 543-2887,,+1 (907) 543-2892,http://www.napaimute.org,"napaimute@gci.net; hellings.family@gmail.com",Napaimute,99559,,2023/03/01 09:00:00+00
150303.757152971,1177925.81354164,1231,Kenaitze Indian Tribe,Federally Recognized Tribe,,PO Box 988,Kenai,AK,+1 (907) 335-7200,,+1 (907) 335-7239,http://kenaize.org,"jpnyren@kenaitze.org; rtepp@kenaitze.org; kisaak@kenaitze.org; pevon@kenaitze.org",Kenai,99611-0988,,2023/03/01 09:00:00+00
-332653.86238065,1562728.38340021,1232,Native Village of Unalakleet,Federally Recognized Tribe,,PO Box 270,Unalakleet,AK,+1 (907) 624-3622,,+1 (907) 624-3621,http://www.unalakleet.net,"vjohnson@kawerak.org; admin@unkira.org; president@unkira.org",Unalakleet,99684,,2023/03/01 09:00:00+00
-316465.219624345,1423712.50023967,1233,Anvik Village,Federally Recognized Tribe,,PO Box 10,Anvik,AK,+1 (907) 663-6322,,+1 (907) 663-6357,,"anvik.tribal@gmail.com; tamijerue@yahoo.com",Anvik,99558,,2023/03/01 09:00:00+00
-542393.858993326,1456437.81284289,1234,Village of Alakanuk,Federally Recognized Tribe,Alakanuk Traditional Council,PO Box 149,Alakanuk,AK,+1 (907) 238-3419,,+1 (907) 238-3429,,"commchief8450@yahoo.com; roney@avcp.org; auktc0149@gmail.com",Alakanuk,99554-0149,,2023/03/01 09:00:00+00
-974186.387616933,910524.356455918,1235,Saint Paul Island,Federally Recognized Tribe,,PO Box 86,St. Paul Island,AK,+1 (907) 546-3200,,+1 (907) 546-3253,,president@aleut.com,St. Paul Island,99660,,2023/03/01 09:00:00+00
240925.578263569,1297506.32142337,1236,Knik Tribe,Federally Recognized Tribe,,PO Box 871565,Wasilla,AK,+1 (907) 373-7991,,+1 (907) 373-2161,,"rporter@kniktribe.org; mtucker@kniktribe.org",Wasilla,99687-1565,,2023/03/01 09:00:00+00
367732.924374864,1834380.69863958,1237,Birch Creek Tribe,Federally Recognized Tribe,Birch Creek Tribal Council,PO Box 73505,Fairbanks,AK,+1 (907) 221-2211,+1 (907) 221-2035,+1 (907) 374-9909,http://www.birchcreektribe.org,"jbaalam@hotmail.com; birchcreektribe@gmail.com; victoria@birchcreektribe.org; admin@birchcreektribe.org",Birch Creek,99707,,2023/03/01 09:00:00+00
-441453.044196578,1110782.94761139,1238,Native Village of Kwinhagak,Federally Recognized Tribe,Quinhagak,PO Box 149,Quinhagak,AK,+1 (907) 556-8165,,+1 (907) 556-8166,http://www.kwinhagak.com,"p.cleveland@kwinhagak.org; tribaladministrator@kwinhagak.org",Quinhagak,99655,,2023/03/01 09:00:00+00
-645493.924265168,1807658.58515957,1239,Native Village of Wales,Federally Recognized Tribe,,PO Box 549,Wales,AK,+1 (907) 664-3062,,+1 (907) 664-3062,http://www.kawerak.org,tc.waa@kawerak.org,Wales,99783,,2023/03/01 09:00:00+00
395312.475013265,1231228.68050019,1240,Native Village of Tatitlek,Federally Recognized Tribe,,PO Box 171,Tatitlek,AK,+1 (907) 325-2311,,+1 (907) 325-2298,,"rpaulsen@tatitlek.com; nanci.tatitlekira@gmail.com",Tatitlek,99677,,2023/03/01 09:00:00+00
453407.617757306,1360664.88459182,1241,Native Village of Kluti-Kaah,Federally Recognized Tribe,Copper Center,PO Box 68,Copper Center,AK,+1 (907) 822-5541,,+1 (907) 822-5130,http://www.klutikaah.com,"nvkkadmin@cvinternet.net; nvkkgov@klutikaah.com",Copper Center,99573-0068,,2023/03/01 09:00:00+00
-420709.46987438,1225426.25546842,1242,Orutsararmiut Traditional Native Council,Federally Recognized Tribe,Orutsararmuit Native Village (aka Bethel),PO Box 927,Bethel,AK,+1 (907) 543-2608,,+1 (907) 543-2639,http://www.nativecouncil.org,"gpeltola@nativecouncil.org; ipavila@nativecouncil.org; efox@nativecouncil.org; bhenry@nativecouncil.org",Bethel,99559,,2023/03/01 09:00:00+00
-413714.838390959,594748.808630928,1243,Native Village of Unga,Federally Recognized Tribe,,PO Box 508,Sand Point,AK,+1 (907) 383-2415,,+1 (907) 383-5553,,ungatribe@arctic.net,Unga,99661,,2023/03/01 09:00:00+00
-482903.267985045,1373351.35759007,1244,Native Village of Pitka's Point,Federally Recognized Tribe,,PO Box 127,St. Mary's,AK,+1 (907) 438-2833,,+1 (907) 438-2569,,pitkaspoint@yahoo.com,Pitka's Point,99658,,2023/03/01 09:00:00+00
35951.3089463507,1490860.42772542,1245,Telida Village,Federally Recognized Tribe,,PO Box 9104,Nikolai,AK,+1 (907) 293-2440,,,,kuskoyim@aol.com,Telida,99691,,2023/03/01 09:00:00+00
331180.006059222,1914361.67558878,1246,Native Village of Venetie Tribal Government,Federally Recognized Tribe,Arctic Village or Village of Venetie,PO Box 81080,Venetie,AK,+1 (907) 849-8165,,+1 (907) 849-8097,,venetietribal@yahoo.com,Venetie,99781,,2023/03/01 09:00:00+00
1306627.05562116,932518.414710322,1247,Wrangell Cooperative Association,Federally Recognized Tribe,,PO Box 2021,Wrangell,AK,+1 (907) 874-4304,,+1 (907) 874-4305,,wcatribe@gmail.com,Wrangell,99929,,2023/03/01 09:00:00+00
451254.648382327,1591003.96240932,1248,Healy Lake Village,Federally Recognized Tribe,,PO Box 60300,Fairbanks,AK,,,,,"bertha.rickman@tananachiefs.org; evelynn.combs@tananachiefs.org; eviecombs@hotmail.com",Healy Lake,99706-0300,,2023/03/01 09:00:00+00
-227608.903441933,2305095.99376599,1249,Village of Wainwright,Federally Recognized Tribe,,PO Box 22,Wainwright,AK,+1 (907) 763-2535,,+1 (907) 763-2536,,"amy.bodfish@inupiatgov.com; alaskavillageofwainwright@gmail.com",Wainwright,99782,,2023/03/01 09:00:00+00
-130179.525861584,2281005.03230254,1250,Atqasuk Village,Federally Recognized Tribe,Atkasook,PO Box 91108,Atqasuk,AK,+1 (907) 633-2575,,+1 (907) 633-2576,,"mary.young@inupiatgov.com; nativevillageofatqasuk@gmail.com",Atqasuk,99791,,2023/03/01 09:00:00+00
-432828.293904382,1215958.57830796,1251,Native Village of Napakiak,Federally Recognized Tribe,,PO Box 34069,Napakiak,AK,+1 (907) 589-2135,,+1 (907) 589-2136,,nativevillageof_napakiak@yahoo.com,Napakiak,99634,,2023/03/01 09:00:00+00
1198536.67962979,956568.349048765,1252,Organized Village of Kake,Federally Recognized Tribe,,PO Box 316,Kake,AK,+1 (907) 785-6471,,+1 (907) 785-4902,,"gewilliams@kakefirstnation.org; dsjackson@kakefirstnation.org; hr@kake-nsn.gov; president@kake-nsn.gov",Kake,99830-0316,,2023/03/01 09:00:00+00
-944351.012307502,843619.589031185,1253,Saint George Island,Federally Recognized Tribe,,PO Box 940,St. George Island,AK,+1 (907) 859-2205,,+1 (907) 859-2242,,"chris_merculief@yahoo.com; antoniae@gci.net; stgtribe@gci.net; mandym@stgtribe.com",Saint George Island,99591-0940,,2023/03/01 09:00:00+00
-447480.499676292,1667267.57588047,1254,Native Village of White Mountain,Federally Recognized Tribe,,PO Box 84090,White Mountain,AK,+1 (907) 638-3651,,+1 (907) 638-3652,,tc.wmo@kawerak.org,White Mountain,99784,,2023/03/01 09:00:00+00
446539.23185435,1370184.56519406,1255,Native Village of Tazlina,Federally Recognized Tribe,,PO Box 87,Glennallen,AK,+1 (907) 822-4375,,+1 (907) 822-5865,,"tazlina@cvinternet.net; prog.mang.tazlina@cvinternet.net; tazlina.tribal@gmail.com; asst.tazlina@cvinternet.net",Tazlina,99588-0087,,2023/03/01 09:00:00+00
-289404.995552482,1009209.35286284,1256,Manokotak Village,Federally Recognized Tribe,,PO Box 169,Manokotak,AK,+1 (907) 289-2067,,+1 (907) 289-1235,,"kmo_villagecouncil@yahoo.com; kmo.village@hotmail.com",Manokotak,99628,,2023/03/01 09:00:00+00
-292240.212580172,1301035.4502126,1257,Village of Aniak,Federally Recognized Tribe,,PO Box 349,Aniak,AK,+1 (907) 675-4349,,+1 (907) 675-4513,,"aniaktribe@yahoo.com; aniak_tribal_transportation@yahoo.com; aniaktribe88@yahoo.com",Aniak,99557,,2023/03/01 09:00:00+00
254354.328064305,1501399.51140176,1258,Native Village of Cantwell,Federally Recognized Tribe,,PO Box 94,Cantwell,AK,+1 (907) 768-2591,,+1 (907) 768-1111,,hallvc@mtaonline.net,Cantwell,99729,,2023/03/01 09:00:00+00
177264.593817685,1732264.30105381,1259,Rampart Village,Federally Recognized Tribe,,PO Box 67029,Rampart,AK,+1 (907) 358-3312,,+1 (907) 358-3115,,rvc.irr@gmail.com,Rampart,99767,,2023/03/01 09:00:00+00
-282384.963166525,1421013.67619956,1260,Shageluk Native Village,Federally Recognized Tribe,,PO Box 35,Shageluk,AK,+1 (907) 473-8239,,+1 (907) 473-8295,,"shageluktribe@gmail.com; ksnorkman03@gmail.com; shagelukta@gmail.com",Shageluk,99665,,2023/03/01 09:00:00+00
-262309.821977796,1040822.31335393,1261,Native Village of Aleknagik,Federally Recognized Tribe,,PO Box 115,Aleknagik,AK,+1 (907) 842-2080,,+1 (907) 842-2081,http://www.bbna.com,aleknagiktraditional@yahoo.com,Aleknagik,99555,,2023/03/01 09:00:00+00
-574544.346944187,1754008.56663688,1262,Native Village of Teller,Federally Recognized Tribe,,PO Box 567,Teller,AK,+1 (907) 642-3381,,+1 (907) 642-2072,,"cisabell@kawerak.org; tc.tla@kawerak.org",Teller,99778,,2023/03/01 09:00:00+00
-337065.636257072,1297603.6353303,1263,Village of Lower Kalskag,Federally Recognized Tribe,,PO Box 27,Lower Kalskag,AK,+1 (907) 471-2300,,+1 (907) 471-2378,,"lowertribal@yahoo.com; vlkclerk@yahoo.com",Lower Kalskag,99626,,2023/03/01 09:00:00+00
-213526.505118015,995860.150287589,1264,Portage Creek Village,Federally Recognized Tribe,Ohgsenakale,1327 E. 72nd Avenue,Anchorage,AK,+1 (907) 277-1105,,+1 (907) 277-1104,,"ciugtaq@yahoo.com; bbaltar@bbna.com; portagecreekadmin@bbna.com",Portage Creek,99515,,2023/03/01 09:00:00+00
246212.519868801,1284301.80779528,1265,Eklutna Native Village,Federally Recognized Tribe,,26339 Eklutna Village Road,Chugiak,AK,+1 (907) 688-6020,,+1 (907) 688-6021,http://www.eklutna-nsn.gov,"nve@eklutna-nsn.gov; dcook@eklutna.org",Eklutna,99567-6339,,2023/03/01 09:00:00+00
-446429.983732929,1027721.74376969,1266,Platinum Traditional Village,Federally Recognized Tribe,,PO Box 8,Platinum,AK,+1 (907) 979-8220,,+1 (907) 979-8178,,ptutribal@hotmail.com,Platinum,99651,,2023/03/01 09:00:00+00
-18953.78281647,1449357.30499281,1267,Nikolai Village,Federally Recognized Tribe,,PO Box 9107,Nikolai,AK,+1 (907) 293-2311,,+1 (907) 293-2481,,"beverly.gregory@tananachiefs.org; nickalexia@hotmail.com",Nikolai,99691,,2023/03/01 09:00:00+00
-255125.567695575,1013454.46873694,1268,Curyung Tribal Council,Federally Recognized Tribe,,PO Box 216,Dillingham,AK,+1 (907) 842-2384,,+1 (907) 842-4510,http://www.curyungtribe.com,"dorothy@curyungtribe.com; tribaladmin@curyungtribe.com",Dillingham,99576,,2023/03/01 09:00:00+00
-136930.264533332,1645322.8711367,1269,Galena Village,Federally Recognized Tribe,Louden Village,100 Tiger Highway,Galena,AK,+1 (907) 656-1711,,+1 (907) 656-1716,,"estherwarner@hotmail.com; office@loudentribe.com",Galena,99741,,2023/03/01 09:00:00+00
-195454.415055778,1646254.15162884,1270,Nulato Village,Federally Recognized Tribe,Nulato Tribal Council,PO Box 65049,Nulato,AK,+1 (907) 898-2339,,+1 (907) 898-2207,,nulatotribe@hotmail.com,Nulato,99765,,2023/03/01 09:00:00+00
445412.654199145,1394980.58120467,1271,Gulkana Village,Federally Recognized Tribe,,PO Box 254,Gulkana,AK,+1 (907) 822-3746,,+1 (907) 822-3976,http://www.gulkanacouncil.org,"admin@gulkanacouncil.org; releazer@gulkanacouncil.org",Gulkana,99586,,2023/03/01 09:00:00+00
-533863.678294878,1465251.18861663,1272,Emmonak Village,Federally Recognized Tribe,,126 Frontage Road,Emmonak,AK,+1 (907) 949-1720,,+1 (907) 949-1384,,"emktribal@yahoo.com; emktribal@gmail.com",Emmonak,99581,,2023/03/01 09:00:00+00
-174280.650938381,974060.04566549,1273,Naknek Native Village,Federally Recognized Tribe,,PO Box 210,Naknek,AK,+1 (907) 246-4210,,+1 (907) 246-3563,,"nnvcpresident@gmail.com; rhonda@arcticterns.org; nnvc.omgr@gmail.com",Naknek,99633,,2023/03/01 09:00:00+00
-993848.111335208,436840.972370498,1274,Native Village of Nikolski,Federally Recognized Tribe,,PO Box 105,Nikolski,AK,+1 (907) 576-2225,,+1 (907) 576-2205,,nvnikolski@hotmail.com,Nikolski,99638,,2023/03/01 09:00:00+00
289882.564494981,1325244.7520765,1275,Chickaloon Native Village,Federally Recognized Tribe,,PO Box 1105,Chickaloon,AK,+1 (907) 745-0749,,+1 (907) 745-0709,http://www.chickaloon.org,cvadmin@chickaloon.org,Chickaloon,99674-1105,,2023/03/01 09:00:00+00
158598.943293933,1674612.30815467,1276,Manley Hot Springs Village,Federally Recognized Tribe,,PO Box 105,Manley Hot Springs,AK,+1 (907) 672-3180,,+1 (907) 672-3200,,emwoods57@gmail.com,Manley Hot Springs,99756,,2023/03/01 09:00:00+00
-280400.010158442,779012.789207092,1277,Native Village of Port Heiden,Federally Recognized Tribe,,PO Box 49007,Port Heiden,AK,+1 (907) 837-2296,,+1 (907) 837-2297,,"annie_christensen@hotmail.com; amber@portheidenalaska.com; miranda@portheidenalaska.com",Port Heiden,99549,,2023/03/01 09:00:00+00
1325134.35553692,790122.884727753,1278,Hydaburg Cooperative Association,Federally Recognized Tribe,,PO Box 349,Hydaburg,AK,+1 (907) 285-3666,,+1 (907) 285-3541,http://hydaburgtribe.org,"hcatribe@gmail.com; tribalpresident@gmail.com",Hydaburg,99922,,2023/03/01 09:00:00+00
-196791.799579654,1329098.74237597,1279,Native Village of Georgetown,Federally Recognized Tribe,,5313 Arctic Boulevard,Anchorage,AK,+1 (907) 274-2195,,+1 (907) 274-2196,http://www.georgetowntc.com,"will.hartman@georgetowntc.com; info@georgetowntc.com",Georgetown,99518,,2023/03/01 09:00:00+00
-571662.17131996,1262920.14789905,1280,Newtok Village,Federally Recognized Tribe,,PO Box 5596,Newtok,AK,+1 (907) 237-2202,,+1 (907) 237-2210,,"newtokvillagecouncil.member@gmail.com; wwt_nnc@yahoo.com; wwt2021nnc@gmail.com",Newtok,99559,,2023/03/01 09:00:00+00
-480769.64005375,1486120.98218124,1281,Village of Kotlik,Federally Recognized Tribe,,PO Box 20210,Kotlik,AK,+1 (907) 899-4326,,+1 (907) 899-4790,,"rbmsroads@yahoo.com; kotadmintr99620@yahoo.com; kotliktc4836@yahoo.com",Kotlik,99620,,2023/03/01 09:00:00+00
1076330.60426869,1052302.48637569,1282,Hoonah Indian Association,Federally Recognized Tribe,,PO Box 602,Hoonah,AK,+1 (907) 945-3545,,+1 (907) 945-3703,,"rstarbard@hiatribe.org; nathan.moulton@hiatribe.org",Hoonah,99829-0602,,2023/03/01 09:00:00+00
-477712.097885299,1374362.05538067,1283,Yupiit of Andreafski,Federally Recognized Tribe,,PO Box 88,St. Mary's,AK,+1 (907) 438-2312,,+1 (907) 438-2512,,yupiit.of.andreafski@gmail.com,Andreafsky,99658-0088,,2023/03/01 09:00:00+00
-422940.310617769,1348502.68131537,1284,Native Village of Marshall,Federally Recognized Tribe,Fortuna Ledge,PO Box 110,Marshall,AK,+1 (907) 679-6302,,+1 (907) 679-6187,,"john_andrewmlltc@gci.net; nandrewmlltc@gci.net; ruth_fitkamlltc@gci.net; sectreasmlltc@gmail.com",Marshall,99585,,2023/03/01 09:00:00+00
-431920.832844917,1649447.70853771,1285,Chinik Eskimo Community,Federally Recognized Tribe,Golovin,PO Box 62020,Golovin,AK,+1 (907) 779-2214,,+1 (907) 779-2829,http://www.kawerak.org,"dbrown@kawerak.org; tc.glv@kawerak.org",Golovin,99762,,2023/03/01 09:00:00+00
14234.2529236914,761503.273809106,1286,Kaguyak Village,Federally Recognized Tribe,,PO Box 5078,Akhiok,AK,+1 (907) 836-2231,,+1 (907) 836-2345,,pamodo_98@yahoo.com,Kaguyak,99615,,2023/03/01 09:00:00+00
-602751.944810066,580773.162306054,1287,Native Village of False Pass,Federally Recognized Tribe,,PO Box 29,False Pass,AK,+1 (907) 548-2227,,+1 (208) 988-2959,http://www.apiai.org/tribes/false-pass/,fptribaloffice@gmail.com,False Pass,99583,,2023/03/01 09:00:00+00
-104231.378830169,1448041.67138072,1288,Takotna Village,Federally Recognized Tribe,,PO TYC,Takotna,AK,+1 (907) 298-2212,,+1 (907) 298-2314,,"takotnatribalcouncil@gmail.com; lynn_goods@yahoo.com",Takotna,99675,,2023/03/01 09:00:00+00
-556950.421676264,1147348.56010866,1289,Native Village of Kipnuk,Federally Recognized Tribe,,PO Box 57,Kipnuk,AK,+1 (907) 896-5515,,+1 (907) 896-5240,,qipneq.5515@gmail.com,Kipnuk,99614,,2023/03/01 09:00:00+00
57878.2758713154,1844678.35876887,1290,Alatna Village,Federally Recognized Tribe,,PO Box 70,Allakaket,AK,+1 (907) 968-2261,,+1 (907) 968-2305,,alatnatribe@gmail.com,Alatna,99720,,2023/03/01 09:00:00+00
456374.663768268,1199932.15296536,1291,Native Village of Eyak,Federally Recognized Tribe,Cordova,PO Box 1388,Cordova,AK,+1 (907) 424-7738,,+1 (907) 424-7739,http://www.eyak-nsn.gov,"reyna@eyak-nsn.gov; matt.piche@eyak-nsn.gov",Eyak,99574-1388,,2023/03/01 09:00:00+00
490069.88529105,1557800.84393968,1292,Village of Dot Lake,Federally Recognized Tribe,,PO Box 2279,Dot Lake,AK,+1 (907) 882-2695,,+1 (907) 882-5558,,"karla.champagne@tananachiefs.org; akjules@hotmail.com; rlhamilton@alaska.edu; ridge@gci.net",Dot Lake Village,99737-2279,,2023/03/01 09:00:00+00
-76596.8081681895,1264712.66721315,1293,Lime Village,Federally Recognized Tribe,,PO Box LVD,McGrath,AK,+1 (907) 526-5236,,+1 (907) 526-5235,,limevillage@gmail.com,Lime Village,99627,,2023/03/01 09:00:00+00
1261269.79662122,957469.307075079,1294,Petersburg Indian Association,Federally Recognized Tribe,,PO Box 1418,Petersburg,AK,+1 (907) 772-3636,,+1 (907) 772-3637,,"barrymorrison@piatribal.org; accountant@piatribal.org; tribaladmin@piatribal.org; officeassistant@piatribal.org",Petersburg,99833,,2023/03/01 09:00:00+00
-364121.721021177,1024741.90872815,1295,Traditional Village of Togiak,Federally Recognized Tribe,,PO Box 310,Togiak,AK,+1 (907) 493-5003,,+1 (907) 493-5005,,"tuyuryaq14@gmail.com; togiakpresident@gmail.com",Togiak,99678,,2023/03/01 09:00:00+00
-299105.785032805,1371169.45586611,1296,Holy Cross Village,Federally Recognized Tribe,,PO Box 89,Holy Cross,AK,+1 (907) 476-7124,,+1 (907) 476-7132,http://www.holycrosstribe.org,"eugene.paul@tananachiefs.org; tessiana.paul@tananachiefs.org",Holy Cross,99602,,2023/03/01 09:00:00+00
1403403.93163677,807389.271110538,1297,Metlakatla Indian Community Annette Island Reserve,Federally Recognized Tribe,,PO Box 8,Metlakatla,AK,+1 (907) 886-4441,,+1 (907) 886-3338,http://www.metlakatla.com,mayor@metlakatla.com,Metlakatla,99926-0008,,2023/03/01 09:00:00+00
-11728.6383307783,1787572.13992937,1298,Hughes Village,Federally Recognized Tribe,,PO Box 45029,Hughes,AK,+1 (907) 889-2239,,+1 (907) 889-2252,,"ella.sam@tananachiefs.org; eileen.jackson@tananachiefs.org",Hughes,99745,,2023/03/01 09:00:00+00
-1366063.79757625,452267.170700528,1299,Native Village of Atka,Federally Recognized Tribe,,PO Box 47030,Atka,AK,+1 (907) 839-2229,,+1 (907) 839-2269,,"atkaira@gci.net; atkairapresident@gmail.com",Atka,99547,,2023/03/01 09:00:00+00
145419.401007554,1184299.98662629,1300,Village of Salamatoff,Federally Recognized Tribe,,PO Box 2682,Kenai,AK,+1 (907) 283-7864,,+1 (907) 283-6470,,"snainc@alaska.net; emorrison@salamatoftribe.org; cmonfor@salamatof.com",Salamatof,99611,,2023/03/01 09:00:00+00
95026.27985464,866748.071608713,1301,Sun'aq Tribe of Kodiak,Federally Recognized Tribe,Shoonaq' Tribe of Kodiak,312 West Marine Way,Kodiak,AK,+1 (907) 486-4449,,+1 (907) 486-3361,http://www.sunaq.org,"ceo@sunaq.org; execadmin@sunaq.org",Kodiak,99615,,2023/03/01 09:00:00+00
97440.5677708763,865270.267010627,1302,Tangirnaq Native Village,Federally Recognized Tribe,Lesnoi Village (aka Woody Island),3449 East Rezanof Drive,Kodiak,AK,+1 (907) 486-9872,,+1 (907) 486-4829,http://www.woodyisland.com,"info@woodyisland.com; audrey.gugel@kodiakhealthcare.org",Woody Island,99615,,2023/03/01 09:00:00+00
-101342.589397113,2367854.81608432,1303,Inupiat Community of the Arctic Slope,Federally Recognized Tribe,,PO Box 934,Barrow,AK,+1 (907) 852-4227,,+1 (907) 852-4246,http://www.inupiatgov.com,"golemaun@hotmail.com; doreen.lampe@inupiatgov.com; morrie.lemen@icas-nsn.gov; lottie.jones@icas-nsn.gov",Utqiagvik,99723,,2023/03/01 09:00:00+00
1296631.56988456,821637.681263856,1304,Klawock Cooperative Association,Federally Recognized Tribe,,PO Box 430,Klawock,AK,+1 (907) 755-2265,,+1 (907) 755-8800,,tribaladmin@klawocktribe.org,Klawock,99925-0430,,2023/03/01 09:00:00+00
-334223.240936744,1300232.63111299,1305,Village of Kalskag,Federally Recognized Tribe,Native Village of Kalskag,PO Box 50,Kalskag,AK,+1 (907) 471-2207,,+1 (907) 471-2399,,"kalskagtribal@yahoo.com; jdorris@kuspuk.org",Upper Kalskag,99607,,2023/03/01 09:00:00+00
477049.511091391,1432884.65986376,1306,Cheesh-Na Tribe,Federally Recognized Tribe,Native Village of Chistochina,PO Box 241,Gakona,AK,+1 (907) 822-3503,,+1 (907) 822-5179,http://www.cheeshna.com,"tribaladmin@cheeshna.com; kmorris@cheeshna.com; dboston@cheeshna.com",Chistochina,99586,,2023/03/01 09:00:00+00
-394185.079115077,1652848.70247964,1307,Native Village of Elim,Federally Recognized Tribe,Elim IRA,PO Box 39070,Elim,AK,+1 (907) 890-3737,,+1 (907) 890-3738,,tc.eli@kawerak.org,Elim,99739,,2023/03/01 09:00:00+00
-175320.955968824,1662762.33659879,1308,Koyukuk Native Village,Federally Recognized Tribe,,PO Box 109,Koyukuk,AK,+1 (907) 927-2253,,+1 (907) 927-2220,,"kathryn.folger@tananachiefs.org; mineelghaadzetoh@outlook.com",Koyukuk,99754,,2023/03/01 09:00:00+00
-421582.787178627,1217808.78826865,1309,Oscarville Traditional Village,Federally Recognized Tribe,,PO Box 6129,Napaskiak,AK,+1 (907) 737-7099,,+1 (907) 737-7428,,mstevens@avcp.org,Oscarville,99559,,2023/03/01 09:00:00+00
1012027.38837764,1184049.09555054,1310,Chilkat Indian Village,Federally Recognized Tribe,Klukwan,HC 60 Box 2207,Haines,AK,+1 (907) 767-5505,,+1 (907) 767-5518,http://www.chilkat-nsn.gov,"klukwan@chilkat-nsn.gov; bwillard@chilkat-nsn.gov",Klukwan,99827,,2023/03/01 09:00:00+00
-766481.088033544,525927.941681311,1311,Native Village of Akutan,Federally Recognized Tribe,,PO Box 89,Akutan,AK,+1 (907) 698-2300,,+1 (907) 698-2301,,"chulka052@msn.com; qigiigun.tribe@outlook.com; jessiec@qigiigun.com",Akutan,99553-0089,,2023/03/01 09:00:00+00
-420789.472216209,1216092.39865664,1312,Native Village of Napaskiak,Federally Recognized Tribe,,PO Box 6009,Napaskiak,AK,+1 (907) 737-7364,,+1 (907) 737-7039,,swilliams@napaskiak.org,Napaskiak,99559,,2023/03/01 09:00:00+00
-358379.619633952,1025834.46710817,1313,Twin Hills Village,Federally Recognized Tribe,,PO Box TWA,Twin Hills,AK,+1 (907) 525-4821,,+1 (907) 525-4822,,"piipital@hotmail.com; wilutsik@outlook.com; beverlyc60@outlook.com; twinhillsadmin@bbna.com",Twin Hills,99576-8996,,2023/03/01 09:00:00+00
-163066.161959473,1016558.07315774,1314,Levelock Village,Federally Recognized Tribe,,PO Box 70,Levelock,AK,+1 (907) 287-3030,,+1 (907) 287-3032,,"levelockasstmgr@gmail.com; levelockadmin@bbna.com",Levelock,99625,,2023/03/01 09:00:00+00
605917.738356754,1500893.82224667,1315,Northway Village,Federally Recognized Tribe,,PO Box 516,Northway,AK,+1 (907) 778-2311,,+1 (907) 778-2220,http://www.northwayvillagecouncil.org,"nicholr@aptalaska.net; nvcta@aptalaska.net",Northway Village,99764,,2023/03/01 09:00:00+00
-346518.522618255,1617843.84290081,1316,Native Village of Shaktoolik,Federally Recognized Tribe,,PO Box 100,Shaktoolik,AK,+1 (907) 955-3701,,+1 (907) 955-2352,,ksagoonick@kawerak.org,Shaktoolik,99771-0100,,2023/03/01 09:00:00+00
-175288.312258999,1316026.27963292,1317,Village of Red Devil,Federally Recognized Tribe,,PO Box 61,Red Devil,AK,+1 (907) 447-3223,,+1 (907) 447-3224,,reddeviltribe@yahoo.com,Red Devil,99656,,2023/03/01 09:00:00+00
66074.8030919999,874380.191229062,1318,Native Village of Port Lions,Federally Recognized Tribe,,PO Box 69,Port Lions,AK,+1 (907) 454-2234,,+1 (907) 454-2434,http://www.nativevillageofportlions.org,"nativevillageofportlions@gmail.com; nnelson@portlionstribe.org; administrator@portlionstribe.org",Port Lions,99550,,2023/03/01 09:00:00+00
-136054.6819512,1314824.03626823,1319,Village of Stony River,Federally Recognized Tribe,,PO Box SRV,Stony River,AK,+1 (907) 537-3258,,+1 (907) 537-3254,,stony.river@yahoo.com,Stony River,99557,,2023/03/01 09:00:00+00
